GOMX-1                  
1 39430U 13066Q   26134.13719381  .00001142  00000+0  17816-3 0  9997
2 39430  97.6514 336.7475 0128515 186.2163 173.7456 14.69319970664915
CUBEBUG-2 (LO-74)       
1 39440U 13066AA  26134.09776140  .00001580  00000+0  15082-3 0  9998
2 39440  97.8892  82.9446 0058895 139.1526 221.4130 14.93495726671906
NEE-02 KRYSAOR          
1 39441U 13066AB  26134.08220978  .00000970  00000+0  11182-3 0  9990
2 39441  97.8883  73.5477 0066154 180.2148 179.9050 14.86485758671130
FUNCUBE-1 (AO-73)       
1 39444U 13066AE  26134.17754074  .00004932  00000+0  31156-3 0  9997
2 39444  97.8260 104.9295 0035222 322.2091  37.6664 15.09033752674533
UWE-3                   
1 39446U 13066AG  26133.38821264  .00002066  00000+0  18157-3 0  9999
2 39446  97.8680  89.2422 0050799  75.9697 284.7165 14.96721930672376
SMDC ONE 2.4            
1 39469U 13072H   26134.08095595  .00006325  00000+0  25865-3 0  9995
2 39469 120.4882 220.4824 0139972 342.1102  17.5078 15.17521136112659
COSMOS 2488 (RODNIK-S 7)
1 39483U 13076A   26134.22951543  .00000048  00000+0  27114-3 0  9990
2 39483  82.4863 189.8507 0019988 166.1592 194.0039 12.42904610561673
COSMOS 2489 (RODNIK-S 8)
1 39484U 13076B   26134.20400431  .00000091  00000+0  58347-3 0  9994
2 39484  82.4900 191.2339 0021829 166.3899 193.7774 12.42879513561726
COSMOS 2490 (RODNIK-S 9)
1 39485U 13076C   26134.17583323  .00000076  00000+0  47741-3 0  9992
2 39485  82.4846 189.3341 0021623 182.0476 178.0519 12.42876798561652
KAZEOSAT 1              
1 39731U 14024A   26134.16182203 -.00000063  00000+0 -63024-5 0  9993
2 39731  98.3213 207.4530 0001608  92.6892 267.4482 14.42065176633655
COSMOS 2496 (RODNIK-S *)
1 39761U 14028A   26134.13341615 -.00000032  00000+0 -30127-3 0  9993
2 39761  82.4422 130.0615 0020483 149.9411 210.2849 12.42876911543281
COSMOS 2497 (RODNIK-S *)
1 39762U 14028B   26134.18962418  .00000004  00000+0 -45901-4 0  9994
2 39762  82.4471 131.7031 0021156 144.9909 215.2566 12.42892751543293
COSMOS 2498 (RODNIK-S *)
1 39763U 14028C   26134.16958153 -.00000028  00000+0 -27577-3 0  9999
2 39763  82.4430 130.2174 0021869 144.8228 215.4300 12.42979080543328
HODOYOSHI-4             
1 40011U 14033B   26134.14414284  .00001130  00000+0  12795-3 0  9992
2 40011  97.5459 320.6126 0025107  60.2658 300.1053 14.88046160643743
UNISAT-6                
1 40012U 14033C   26133.97556587  .00002346  00000+0  25663-3 0  9994
2 40012  97.7835 287.3035 0045331 179.5190 180.6078 14.88037819641071
DEIMOS-2                
1 40013U 14033D   26134.21889914  .00001525  00000+0  14954-3 0  9995
2 40013  97.5884   9.8957 0002623  80.7912 279.3605 14.93631221632655
BUGSAT-1 (TITA)         
1 40014U 14033E   26134.22828742  .00003290  00000+0  17765-3 0  9993
2 40014  98.0416 224.8036 0026758 297.9363  61.9159 15.15220765650692
SAUDISAT 4              
1 40016U 14033G   26133.96513397  .00000449  00000+0  66014-4 0  9997
2 40016  97.7538 281.2934 0044789 182.9068 177.1891 14.79491766641017
APRIZESAT 9             
1 40018U 14033J   26133.59133168  .00000273  00000+0  47944-4 0  9998
2 40018  97.9010 267.6451 0065087 312.3519  47.2188 14.74172129638467
BRITE-CA1 (TORONTO)     
1 40020U 14033L   26134.13308804  .00000422  00000+0  71132-4 0  9995
2 40020  97.9690 263.6992 0079202  26.9087 333.6195 14.72628605637206
DUCHIFAT-1              
1 40021U 14033M   26134.11597346  .00063959  00000+0  83582-3 0  9990
2 40021  98.0509 188.6734 0006023 183.9716 176.1491 15.58428307650433
NANOSATC-BR1            
1 40024U 14033Q   26134.02009786  .00011466  00000+0  39351-3 0  9990
2 40024  98.0752 163.4085 0001842 319.0154  41.0946 15.30336377648750
