OBJECT_NAME,OBJECT_ID,EPOCH,MEAN_MOTION,ECCENTRICITY,INCLINATION,RA_OF_ASC_NODE,ARG_OF_PERICENTER,MEAN_ANOMALY,EPHEMERIS_TYPE,CLASSIFICATION_TYPE,NORAD_CAT_ID,ELEMENT_SET_NO,REV_AT_EPOCH,BSTAR,MEAN_MOTION_DOT,MEAN_MOTION_DDOT
GOMX-1,2013-066Q,2026-05-14T03:17:33.545184,14.69319970,.0128515,97.6514,336.7475,186.2163,173.7456,0,U,39430,999,66491,.17816E-3,.1142E-4,0
CUBEBUG-2 (LO-74),2013-066AA,2026-05-14T02:20:46.584960,14.93495726,.0058895,97.8892,82.9446,139.1526,221.4130,0,U,39440,999,67190,.15082E-3,.158E-4,0
NEE-02 KRYSAOR,2013-066AB,2026-05-14T01:58:22.924992,14.86485758,.0066154,97.8883,73.5477,180.2148,179.9050,0,U,39441,999,67113,.11182E-3,.97E-5,0
FUNCUBE-1 (AO-73),2013-066AE,2026-05-14T04:15:39.519936,15.09033752,.0035222,97.8260,104.9295,322.2091,37.6664,0,U,39444,999,67453,.31156E-3,.4932E-4,0
UWE-3,2013-066AG,2026-05-13T09:19:01.572096,14.96721930,.0050799,97.8680,89.2422,75.9697,284.7165,0,U,39446,999,67237,.18156966E-3,.2066E-4,0
SMDC ONE 2.4,2013-072H,2026-05-14T01:56:34.594080,15.17521136,.0139972,120.4882,220.4824,342.1102,17.5078,0,U,39469,999,11265,.25865E-3,.6325E-4,0
COSMOS 2488 (RODNIK-S 7),2013-076A,2026-05-14T05:30:30.133152,12.42904610,.0019988,82.4863,189.8507,166.1592,194.0039,0,U,39483,999,56167,.27114E-3,.48E-6,0
COSMOS 2489 (RODNIK-S 8),2013-076B,2026-05-14T04:53:45.972384,12.42879513,.0021829,82.4900,191.2339,166.3899,193.7774,0,U,39484,999,56172,.58347E-3,.91E-6,0
COSMOS 2490 (RODNIK-S 9),2013-076C,2026-05-14T04:13:11.991072,12.42876798,.0021623,82.4846,189.3341,182.0476,178.0519,0,U,39485,999,56165,.47741E-3,.76E-6,0
KAZEOSAT 1,2014-024A,2026-05-14T03:53:01.423392,14.42065176,.0001608,98.3213,207.4530,92.6892,267.4482,0,U,39731,999,63365,-.63024E-5,-.63E-6,0
COSMOS 2496 (RODNIK-S 10),2014-028A,2026-05-14T03:12:07.155360,12.42876911,.0020483,82.4422,130.0615,149.9411,210.2849,0,U,39761,999,54328,-.30127E-3,-.32E-6,0
COSMOS 2497 (RODNIK-S 11),2014-028B,2026-05-14T04:33:03.529152,12.42892751,.0021156,82.4471,131.7031,144.9909,215.2566,0,U,39762,999,54329,-.45901E-4,.4E-7,0
COSMOS 2498 (RODNIK-S 12),2014-028C,2026-05-14T04:04:11.844192,12.42979080,.0021869,82.4430,130.2174,144.8228,215.4300,0,U,39763,999,54332,-.27577E-3,-.28E-6,0
HODOYOSHI-4,2014-033B,2026-05-14T03:27:33.941376,14.88046160,.0025107,97.5459,320.6126,60.2658,300.1053,0,U,40011,999,64374,.12795E-3,.113E-4,0
UNISAT-6,2014-033C,2026-05-13T23:24:48.891168,14.88037819,.0045331,97.7835,287.3035,179.5190,180.6078,0,U,40012,999,64107,.25663E-3,.2346E-4,0
DEIMOS-2,2014-033D,2026-05-14T05:15:12.885696,14.93631221,.0002623,97.5884,9.8957,80.7912,279.3605,0,U,40013,999,63265,.14954E-3,.1525E-4,0
BUGSAT-1 (TITA),2014-033E,2026-05-14T05:28:44.033088,15.15220765,.0026758,98.0416,224.8036,297.9363,61.9159,0,U,40014,999,65069,.17765E-3,.329E-4,0
SAUDISAT 4,2014-033G,2026-05-13T23:09:47.575008,14.79491766,.0044789,97.7538,281.2934,182.9068,177.1891,0,U,40016,999,64101,.66014E-4,.449E-5,0
APRIZESAT 9,2014-033J,2026-05-13T14:11:31.057152,14.74172129,.00650878,97.9010,267.6451,312.3519,47.2188,0,U,40018,999,63846,.4794371E-4,.273E-5,0
BRITE-CA1 (TORONTO),2014-033L,2026-05-14T03:11:38.806656,14.72628605,.0079202,97.9690,263.6992,26.9087,333.6195,0,U,40020,999,63720,.71132E-4,.422E-5,0
DUCHIFAT-1,2014-033M,2026-05-14T02:47:00.106944,15.58428307,.0006023,98.0509,188.6734,183.9716,176.1491,0,U,40021,999,65043,.83582E-3,.63959E-3,0
NANOSATC-BR1,2014-033Q,2026-05-14T00:28:56.455104,15.30336377,.0001842,98.0752,163.4085,319.0154,41.0946,0,U,40024,999,64875,.39351E-3,.11466E-3,0
